[{"OBJECT_NAME":"KOSEN-1","OBJECT_ID":"2021-102H","EPOCH":"2026-03-09T22:29:54.100608","MEAN_MOTION":15.25323573,"ECCENTRICITY":0.00138659,"INCLINATION":97.3334,"RA_OF_ASC_NODE":113.0569,"ARG_OF_PERICENTER":191.9191,"MEAN_ANOMALY":168.1721,"EPHEMERIS_TYPE":0,"CLASSIFICATION_TYPE":"U","NORAD_CAT_ID":49402,"ELEMENT_SET_NO":999,"REV_AT_EPOCH":23888,"BSTAR":0.00040411561,"MEAN_MOTION_DOT":0.00010142,"MEAN_MOTION_DDOT":0},{"OBJECT_NAME":"STARLINK-35650","OBJECT_ID":"2025-268S","EPOCH":"2026-03-09T03:30:00.926784","MEAN_MOTION":15.27552243,"ECCENTRICITY":0.00014842,"INCLINATION":43.0029,"RA_OF_ASC_NODE":350.3909,"ARG_OF_PERICENTER":294.8754,"MEAN_ANOMALY":65.1944,"EPHEMERIS_TYPE":0,"CLASSIFICATION_TYPE":"U","NORAD_CAT_ID":66573,"ELEMENT_SET_NO":999,"REV_AT_EPOCH":1787,"BSTAR":0.00078546773,"MEAN_MOTION_DOT":0.00021397,"MEAN_MOTION_DDOT":0}]
